[{"CCSDS_OMM_VERS":"3.0","COMMENT":"GENERATED VIA SPACE-TRACK.ORG API","CREATION_DATE":"2020-01-09T12:40:14","ORIGINATOR":"18 SPCS","OBJECT_NAME":"COSMOS 2251 DEB","OBJECT_ID":"1993-036ASU","CENTER_NAME":"EARTH","REF_FRAME":"TEME","TIME_SYSTEM":"UTC","MEAN_ELEMENT_THEORY":"SGP4","EPOCH":"2020-01-05T00:01:37.593984","MEAN_MOTION":"15.98696855","ECCENTRICITY":"0.00061220","INCLINATION":"73.9936","RA_OF_ASC_NODE":"220.5490","ARG_OF_PERICENTER":"103.6647","MEAN_ANOMALY":"256.5273","EPHEMERIS_TYPE":"0","CLASSIFICATION_TYPE":"U","NORAD_CAT_ID":"35822","ELEMENT_SET_NO":"999","REV_AT_EPOCH":"56490","BSTAR":"0.00901970000000","MEAN_MOTION_DOT":"0.03325937","MEAN_MOTION_DDOT":"0.0181370000000","SEMIMAJOR_AXIS":"6656.170","PERIOD":"90.073","APOAPSIS":"282.110","PERIAPSIS":"273.960","OBJECT_TYPE":"DEBRIS","RCS_SIZE":"SMALL","COUNTRY_CODE":"CIS","LAUNCH_DATE":"1993-06-16","SITE":"PKMTR","DECAY_DATE":"2020-01-07","FILE":"2681040","GP_ID":"146424185","TLE_LINE0":"0 COSMOS 2251 DEB","TLE_LINE1":"1 35822U 93036ASU 20005.00112956  .03325937  18137-1  90197-2 0  9993","TLE_LINE2":"2 35822  73.9936 220.5490 0006122 103.6647 256.5273 15.98696855564905"},{"CCSDS_OMM_VERS":"3.0","COMMENT":"GENERATED VIA SPACE-TRACK.ORG API","CREATION_DATE":"2011-09-25T12:35:47","ORIGINATOR":"18 SPCS","OBJECT_NAME":"COSMOS 2251 DEB","OBJECT_ID":"1993-036ASV","CENTER_NAME":"EARTH","REF_FRAME":"TEME","TIME_SYSTEM":"UTC","MEAN_ELEMENT_THEORY":"SGP4","EPOCH":"2011-09-23T12:58:58.334880","MEAN_MOTION":"16.00071861","ECCENTRICITY":"0.00319930","INCLINATION":"73.8843","RA_OF_ASC_NODE":"215.0116","ARG_OF_PERICENTER":"239.9940","MEAN_ANOMALY":"122.2895","EPHEMERIS_TYPE":"0","CLASSIFICATION_TYPE":"U","NORAD_CAT_ID":"35823","ELEMENT_SET_NO":"999","REV_AT_EPOCH":"12887","BSTAR":"0.01162200000000","MEAN_MOTION_DOT":"0.04580478","MEAN_MOTION_DDOT":"0.0432620000000","SEMIMAJOR_AXIS":"6652.360","PERIOD":"89.995","APOAPSIS":"295.508","PERIAPSIS":"252.942","OBJECT_TYPE":"DEBRIS","RCS_SIZE":"SMALL","COUNTRY_CODE":"CIS","LAUNCH_DATE":"1993-06-16","SITE":"PKMTR","DECAY_DATE":"2011-09-24","FILE":"1161027","GP_ID":"85142347","TLE_LINE0":"0 COSMOS 2251 DEB","TLE_LINE1":"1 35823U 93036ASV 11266.54095295  .04580478  43262-1  11622-1 0  9994","TLE_LINE2":"2 35823 073.8843 215.0116 0031993 239.9940 122.2895 16.00071861128878"},{"CCSDS_OMM_VERS":"3.0","COMMENT":"GENERATED VIA SPACE-TRACK.ORG API","CREATION_DATE":"2026-03-26T10:28:28","ORIGINATOR":"18 SPCS","OBJECT_NAME":"COSMOS 2251 DEB","OBJECT_ID":"1993-036ASW","CENTER_NAME":"EARTH","REF_FRAME":"TEME","TIME_SYSTEM":"UTC","MEAN_ELEMENT_THEORY":"SGP4","EPOCH":"2026-03-26T02:27:16.470144","MEAN_MOTION":"13.88867161","ECCENTRICITY":"0.02515092","INCLINATION":"73.8438","RA_OF_ASC_NODE":"231.0428","ARG_OF_PERICENTER":"298.4650","MEAN_ANOMALY":"59.1347","EPHEMERIS_TYPE":"0","CLASSIFICATION_TYPE":"U","NORAD_CAT_ID":"35824","ELEMENT_SET_NO":"999","REV_AT_EPOCH":"85662","BSTAR":"0.00079584009000","MEAN_MOTION_DOT":"0.00001212","MEAN_MOTION_DDOT":"0.0000000000000","SEMIMAJOR_AXIS":"7310.740","PERIOD":"103.682","APOAPSIS":"1116.477","PERIAPSIS":"748.734","OBJECT_TYPE":"DEBRIS","RCS_SIZE":"SMALL","COUNTRY_CODE":"CIS","LAUNCH_DATE":"1993-06-16","SITE":"PKMTR","DECAY_DATE":null,"FILE":"5098523","GP_ID":"317115554","TLE_LINE0":"0 COSMOS 2251 DEB","TLE_LINE1":"1 35824U 93036ASW 26085.10227396  .00001212  00000-0  79584-3 0  9996","TLE_LINE2":"2 35824  73.8438 231.0428 0251509 298.4650  59.1347 13.88867161856628"},{"CCSDS_OMM_VERS":"3.0","COMMENT":"GENERATED VIA SPACE-TRACK.ORG API","CREATION_DATE":"2026-03-28T16:36:19","ORIGINATOR":"18 SPCS","OBJECT_NAME":"COSMOS 2251 DEB","OBJECT_ID":"1993-036ASX","CENTER_NAME":"EARTH","REF_FRAME":"TEME","TIME_SYSTEM":"UTC","MEAN_ELEMENT_THEORY":"SGP4","EPOCH":"2026-03-28T08:43:46.034400","MEAN_MOTION":"13.71434465","ECCENTRICITY":"0.03513270","INCLINATION":"74.1147","RA_OF_ASC_NODE":"328.9286","ARG_OF_PERICENTER":"39.8988","MEAN_ANOMALY":"322.7392","EPHEMERIS_TYPE":"0","CLASSIFICATION_TYPE":"U","NORAD_CAT_ID":"35825","ELEMENT_SET_NO":"999","REV_AT_EPOCH":"83956","BSTAR":"0.00144270000000","MEAN_MOTION_DOT":"0.00001993","MEAN_MOTION_DDOT":"0.0000000000000","SEMIMAJOR_AXIS":"7372.563","PERIOD":"105.000","APOAPSIS":"1253.446","PERIAPSIS":"735.410","OBJECT_TYPE":"DEBRIS","RCS_SIZE":"SMALL","COUNTRY_CODE":"CIS","LAUNCH_DATE":"1993-06-16","SITE":"PKMTR","DECAY_DATE":null,"FILE":"5103603","GP_ID":"317422131","TLE_LINE0":"0 COSMOS 2251 DEB","TLE_LINE1":"1 35825U 93036ASX 26087.36372725  .00001993  00000-0  14427-2 0  9994","TLE_LINE2":"2 35825  74.1147 328.9286 0351327  39.8988 322.7392 13.71434465839560"},{"CCSDS_OMM_VERS":"3.0","COMMENT":"GENERATED VIA SPACE-TRACK.ORG API","CREATION_DATE":"2010-09-01T00:48:46","ORIGINATOR":"18 SPCS","OBJECT_NAME":"COSMOS 2251 DEB","OBJECT_ID":"1993-036ASY","CENTER_NAME":"EARTH","REF_FRAME":"TEME","TIME_SYSTEM":"UTC","MEAN_ELEMENT_THEORY":"SGP4","EPOCH":"2010-08-31T23:31:42.964895","MEAN_MOTION":"15.93654394","ECCENTRICITY":"0.00563710","INCLINATION":"73.9383","RA_OF_ASC_NODE":"239.5394","ARG_OF_PERICENTER":"323.0370","MEAN_ANOMALY":"37.0796","EPHEMERIS_TYPE":"0","CLASSIFICATION_TYPE":"U","NORAD_CAT_ID":"35826","ELEMENT_SET_NO":"999","REV_AT_EPOCH":"6267","BSTAR":"0.00145150000000","MEAN_MOTION_DOT":"0.00610739","MEAN_MOTION_DDOT":"0.0001534800000","SEMIMAJOR_AXIS":"6670.207","PERIOD":"90.358","APOAPSIS":"329.673","PERIAPSIS":"254.472","OBJECT_TYPE":"DEBRIS","RCS_SIZE":"SMALL","COUNTRY_CODE":"CIS","LAUNCH_DATE":"1993-06-16","SITE":"PKMTR","DECAY_DATE":"2010-09-08","FILE":"954549","GP_ID":"79334095","TLE_LINE0":"0 COSMOS 2251 DEB","TLE_LINE1":"1 35826U 93036ASY 10243.98035839  .00610739  15348-3  14515-2 0  9998","TLE_LINE2":"2 35826 073.9383 239.5394 0056371 323.0370 037.0796 15.93654394 62676"},{"CCSDS_OMM_VERS":"3.0","COMMENT":"GENERATED VIA SPACE-TRACK.ORG API","CREATION_DATE":"2014-04-24T16:20:19","ORIGINATOR":"18 SPCS","OBJECT_NAME":"COSMOS 2251 DEB","OBJECT_ID":"1993-036ASZ","CENTER_NAME":"EARTH","REF_FRAME":"TEME","TIME_SYSTEM":"UTC","MEAN_ELEMENT_THEORY":"SGP4","EPOCH":"2014-04-24T15:47:47.975423","MEAN_MOTION":"15.42855874","ECCENTRICITY":"0.29402730","INCLINATION":"56.2286","RA_OF_ASC_NODE":"326.4861","ARG_OF_PERICENTER":"42.6250","MEAN_ANOMALY":"306.5173","EPHEMERIS_TYPE":"0","CLASSIFICATION_TYPE":"U","NORAD_CAT_ID":"35827","ELEMENT_SET_NO":"999","REV_AT_EPOCH":"27582","BSTAR":"0.00000000000000","MEAN_MOTION_DOT":"-0.22123081","MEAN_MOTION_DDOT":"0.0000000000000","SEMIMAJOR_AXIS":"6815.826","PERIOD":"93.333","APOAPSIS":"2441.730","PERIAPSIS":"-1566.347","OBJECT_TYPE":"DEBRIS","RCS_SIZE":"SMALL","COUNTRY_CODE":"CIS","LAUNCH_DATE":"1993-06-16","SITE":"PKMTR","DECAY_DATE":"2014-05-23","FILE":"1671543","GP_ID":"95765902","TLE_LINE0":"0 COSMOS 2251 DEB","TLE_LINE1":"1 35827U 93036ASZ 14114.65819416 -.22123081  00000-0  00000+0 0  9996","TLE_LINE2":"2 35827 056.2286 326.4861 2940273 042.6250 306.5173 15.42855874275820"},{"CCSDS_OMM_VERS":"3.0","COMMENT":"GENERATED VIA SPACE-TRACK.ORG API","CREATION_DATE":"2014-03-07T15:42:14","ORIGINATOR":"18 SPCS","OBJECT_NAME":"COSMOS 2251 DEB","OBJECT_ID":"1993-036ATA","CENTER_NAME":"EARTH","REF_FRAME":"TEME","TIME_SYSTEM":"UTC","MEAN_ELEMENT_THEORY":"SGP4","EPOCH":"2014-03-07T04:46:03.781632","MEAN_MOTION":"15.86716178","ECCENTRICITY":"0.00145240","INCLINATION":"73.7862","RA_OF_ASC_NODE":"252.4993","ARG_OF_PERICENTER":"75.9261","MEAN_ANOMALY":"284.3582","EPHEMERIS_TYPE":"0","CLASSIFICATION_TYPE":"U","NORAD_CAT_ID":"35828","ELEMENT_SET_NO":"999","REV_AT_EPOCH":"26133","BSTAR":"0.01969800000000","MEAN_MOTION_DOT":"0.04256725","MEAN_MOTION_DDOT":"0.0193750000000","SEMIMAJOR_AXIS":"6689.638","PERIOD":"90.753","APOAPSIS":"321.219","PERIAPSIS":"301.786","OBJECT_TYPE":"DEBRIS","RCS_SIZE":"SMALL","COUNTRY_CODE":"CIS","LAUNCH_DATE":"1993-06-16","SITE":"PKMTR","DECAY_DATE":"2014-03-08","FILE":"1644401","GP_ID":"95346478","TLE_LINE0":"0 COSMOS 2251 DEB","TLE_LINE1":"1 35828U 93036ATA 14066.19865488  .04256725  19375-1  19698-1 0  9994","TLE_LINE2":"2 35828 073.7862 252.4993 0014524 075.9261 284.3582 15.86716178261338"},{"CCSDS_OMM_VERS":"3.0","COMMENT":"GENERATED VIA SPACE-TRACK.ORG API","CREATION_DATE":"2026-03-28T04:18:04","ORIGINATOR":"18 SPCS","OBJECT_NAME":"COSMOS 2251 DEB","OBJECT_ID":"1993-036ATB","CENTER_NAME":"EARTH","REF_FRAME":"TEME","TIME_SYSTEM":"UTC","MEAN_ELEMENT_THEORY":"SGP4","EPOCH":"2026-03-27T17:42:27.449280","MEAN_MOTION":"14.79387261","ECCENTRICITY":"0.00067246","INCLINATION":"74.0221","RA_OF_ASC_NODE":"252.5263","ARG_OF_PERICENTER":"284.2477","MEAN_ANOMALY":"75.7952","EPHEMERIS_TYPE":"0","CLASSIFICATION_TYPE":"U","NORAD_CAT_ID":"35829","ELEMENT_SET_NO":"999","REV_AT_EPOCH":"89326","BSTAR":"0.00185225840000","MEAN_MOTION_DOT":"0.00013812","MEAN_MOTION_DDOT":"0.0000000000000","SEMIMAJOR_AXIS":"7009.396","PERIOD":"97.338","APOAPSIS":"635.974","PERIAPSIS":"626.547","OBJECT_TYPE":"DEBRIS","RCS_SIZE":"SMALL","COUNTRY_CODE":"CIS","LAUNCH_DATE":"1993-06-16","SITE":"PKMTR","DECAY_DATE":null,"FILE":"5102610","GP_ID":"317344186","TLE_LINE0":"0 COSMOS 2251 DEB","TLE_LINE1":"1 35829U 93036ATB 26086.73781770  .00013812  00000-0  18523-2 0  9996","TLE_LINE2":"2 35829  74.0221 252.5263 0006725 284.2477  75.7952 14.79387261893265"}]